UserID,alphanumeric,name,last name,email,phone,Streetaddress,Street-address2,city,State,postalZip,country
4548,TBJ29SOB6TR,Zoe,Baxter,diam.vel.arcu@aol.edu,135-8466,Ap #483-2395 A Avenue,"642-6080 Nec, Rd.",Kemerovo,Northwest Territories,55993,Austria
1583,WWO69HVS5IR,Wallace,Jared,morbi.vehicula@google.com,1-852-750-7214,"P.O. Box 437, 2849 Egestas Rd.",Ap #797-7973 Lectus St.,Pacasmayo,Heredia,03785,China
4033,YFN53FNB2PV,Rashad,Victoria,non@aol.edu,776-5783,3726 Dis Av.,476-2192 Elit. Road,Eisleben,Selkirkshire,35632,Mexico
1435,ULP32CCJ7HP,Sawyer,Jason,neque.nullam@hotmail.net,1-616-424-8038,Ap #222-2411 Mauris Street,102-177 Arcu St.,Oslo,Victoria,63473,Norway
3739,XOT67HPO0NS,Dolan,Raphael,augue.porttitor@aol.edu,1-868-332-6882,563-8177 Suspendisse Ave,687-5569 Tempor Avenue,Quilaco,Sindh,32375,Canada
2331,WYS57GPI2BB,Walker,Alyssa,vel.arcu.curabitur@google.net,885-0623,"P.O. Box 119, 3648 Erat Street",777-7885 Ipsum St.,Rock Springs,Maranhão,34360,Turkey
3343,IFM76AAR8LM,Marshall,Reed,facilisi.sed@icloud.net,107-6432,"P.O. Box 837, 7070 Ut Rd.","4942 Vulputate, Ave",Lithgow,British Columbia,9638,Colombia
1645,RED96ICH1FF,Emily,Keane,accumsan.laoreet@yahoo.ca,852-2604,Ap #592-808 Malesuada Road,"P.O. Box 985, 3044 Primis Avenue",Gresham,Dalarnas län,0826,Brazil
4606,FGH73LVP7KG,Karleigh,Xanthus,duis@icloud.org,1-248-746-6786,Ap #238-7402 Bibendum St.,"P.O. Box 633, 4329 Dolor Avenue",Toruń,South Chungcheong,376433,India
1523,PRD89MOH2WJ,Reece,Phillip,gravida.praesent@icloud.ca,618-7049,"927-4601 Et, St.",178-5101 Est. Street,Bischofshofen,Bremen,515534,Austria
1890,WAM24WIK7CL,Nasim,Jemima,nibh.lacinia@google.org,1-704-978-6385,Ap #788-1879 Morbi Ave,"9482 Eu, Av.",Kharmang,Cesar,627491,China
2479,VHO81FUB6AF,Uta,Caldwell,rutrum.magna@outlook.couk,532-6411,4928 Nunc Rd.,134-2590 Odio. Rd.,Cork,Styria,1589,Peru
4348,TKU62FEJ2QU,Petra,Matthew,augue.scelerisque@yahoo.org,1-650-841-4825,Ap #487-7048 Eget Rd.,498-9814 Dolor. St.,Chernihiv,Valle d'Aosta,25347,Vietnam
2589,ZOO55YIJ5MD,Nicholas,Sonia,nunc.sed.pede@yahoo.com,1-994-278-2681,4461 Enim Av.,Ap #927-2434 Arcu Road,Skövde,San Luis Potosí,60004,Pakistan
3424,NHW59KAA9MN,Shoshana,Jasper,eu.arcu@google.couk,1-669-430-6989,Ap #665-3372 Sed Rd.,"985-8761 Est, Av.",Reutlingen,Warmińsko-mazurskie,0138 UP,Austria
4195,UDJ31CPV4LY,Charles,Daryl,ut.odio.vel@hotmail.ca,1-873-420-6155,"P.O. Box 658, 106 Lacinia Rd.",806-7719 Blandit St.,Okene,East Nusa Tenggara,8123,United States
2197,KUQ06ZJH4DB,Grady,Fulton,lobortis.risus@icloud.edu,353-4797,715-3005 Convallis Rd.,Ap #696-4447 Vitae Road,Santa Cruz de Tenerife,Rogaland,01880,Colombia
4952,OLF22FHQ3YA,Elton,Hiroko,sed@yahoo.ca,1-507-677-5750,4123 Nisl Road,"P.O. Box 828, 4739 Nulla St.",Huesca,Principado de Asturias,895396,Netherlands
1994,SKA22QOM7EK,Aurora,Azalia,posuere.at@google.net,1-233-262-9323,904-7469 Fusce Road,Ap #536-1929 Sit Ave,Mo i Rana,Khyber Pakhtoonkhwa,1680,Peru
3944,QJI04XUJ5YY,Noble,Oleg,vitae.purus@hotmail.ca,1-374-372-6453,369-2418 Curabitur Road,Ap #353-8742 Nec Ave,Ovalle,Osun,ZK5 1OC,Norway
